CCSDS_OMM_VERS = 2.0
CREATION_DATE  = 
ORIGINATOR     = 

OBJECT_NAME    = SEASAT 1
OBJECT_ID      = 1978-064A
CENTER_NAME    = EARTH
REF_FRAME      = TEME
TIME_SYSTEM    = UTC
MEAN_ELEMENT_THEORY = SGP/SGP4

EPOCH          = 2026-02-20T18:09:09.096192
MEAN_MOTION    = 14.46146022
ECCENTRICITY   = .0001909
INCLINATION    = 108.0149
RA_OF_ASC_NODE = 89.9646
ARG_OF_PERICENTER = 290.1343
MEAN_ANOMALY   = 69.9597

EPHEMERIS_TYPE = 0
CLASSIFICATION_TYPE = U
NORAD_CAT_ID   = 10967
ELEMENT_SET_NO = 999
REV_AT_EPOCH   = 50406
BSTAR          = .89634E-4
MEAN_MOTION_DOT = .183E-5
MEAN_MOTION_DDOT = 0

CCSDS_OMM_VERS = 2.0
CREATION_DATE  = 
ORIGINATOR     = 

OBJECT_NAME    = SL-14 R/B
OBJECT_ID      = 1979-011B
CENTER_NAME    = EARTH
REF_FRAME      = TEME
TIME_SYSTEM    = UTC
MEAN_ELEMENT_THEORY = SGP/SGP4

EPOCH          = 2026-02-20T16:17:21.912576
MEAN_MOTION    = 14.91886589
ECCENTRICITY   = .0017562
INCLINATION    = 82.5235
RA_OF_ASC_NODE = 112.7141
ARG_OF_PERICENTER = 112.7437
MEAN_ANOMALY   = 247.5640

EPHEMERIS_TYPE = 0
CLASSIFICATION_TYPE = U
NORAD_CAT_ID   = 11267
ELEMENT_SET_NO = 999
REV_AT_EPOCH   = 52624
BSTAR          = .48544E-4
MEAN_MOTION_DOT = .518E-5
MEAN_MOTION_DDOT = 0

CCSDS_OMM_VERS = 2.0
CREATION_DATE  = 
ORIGINATOR     = 

OBJECT_NAME    = SL-8 R/B
OBJECT_ID      = 1979-089B
CENTER_NAME    = EARTH
REF_FRAME      = TEME
TIME_SYSTEM    = UTC
MEAN_ELEMENT_THEORY = SGP/SGP4

EPOCH          = 2026-02-20T13:03:48.534336
MEAN_MOTION    = 14.42339441
ECCENTRICITY   = .0016913
INCLINATION    = 74.0688
RA_OF_ASC_NODE = 122.7827
ARG_OF_PERICENTER = 297.1892
MEAN_ANOMALY   = 62.7540

EPHEMERIS_TYPE = 0
CLASSIFICATION_TYPE = U
NORAD_CAT_ID   = 11574
ELEMENT_SET_NO = 999
REV_AT_EPOCH   = 43363
BSTAR          = .7355E-4
MEAN_MOTION_DOT = .217E-5
MEAN_MOTION_DDOT = 0

CCSDS_OMM_VERS = 2.0
CREATION_DATE  = 
ORIGINATOR     = 

OBJECT_NAME    = SL-14 R/B
OBJECT_ID      = 1980-005B
CENTER_NAME    = EARTH
REF_FRAME      = TEME
TIME_SYSTEM    = UTC
MEAN_ELEMENT_THEORY = SGP/SGP4

EPOCH          = 2026-02-20T17:56:39.601248
MEAN_MOTION    = 14.90907476
ECCENTRICITY   = .0014684
INCLINATION    = 82.5170
RA_OF_ASC_NODE = 323.3033
ARG_OF_PERICENTER = 215.5113
MEAN_ANOMALY   = 144.5130

EPHEMERIS_TYPE = 0
CLASSIFICATION_TYPE = U
NORAD_CAT_ID   = 11672
ELEMENT_SET_NO = 999
REV_AT_EPOCH   = 47396
BSTAR          = .51699E-4
MEAN_MOTION_DOT = .536E-5
MEAN_MOTION_DDOT = 0

CCSDS_OMM_VERS = 2.0
CREATION_DATE  = 
ORIGINATOR     = 

OBJECT_NAME    = SL-8 R/B
OBJECT_ID      = 1981-003B
CENTER_NAME    = EARTH
REF_FRAME      = TEME
TIME_SYSTEM    = UTC
MEAN_ELEMENT_THEORY = SGP/SGP4

EPOCH          = 2026-02-20T18:40:01.492320
MEAN_MOTION    = 15.10315309
ECCENTRICITY   = .0262629
INCLINATION    = 82.9391
RA_OF_ASC_NODE = 305.6547
ARG_OF_PERICENTER = 237.4898
MEAN_ANOMALY   = 120.0713

EPHEMERIS_TYPE = 0
CLASSIFICATION_TYPE = U
NORAD_CAT_ID   = 12139
ELEMENT_SET_NO = 999
REV_AT_EPOCH   = 31212
BSTAR          = .37705E-3
MEAN_MOTION_DOT = .14384E-3
MEAN_MOTION_DDOT = 0

CCSDS_OMM_VERS = 2.0
CREATION_DATE  = 
ORIGINATOR     = 

OBJECT_NAME    = SL-3 R/B
OBJECT_ID      = 1981-046B
CENTER_NAME    = EARTH
REF_FRAME      = TEME
TIME_SYSTEM    = UTC
MEAN_ELEMENT_THEORY = SGP/SGP4

EPOCH          = 2026-02-20T18:43:18.454944
MEAN_MOTION    = 15.41505943
ECCENTRICITY   = .0020705
INCLINATION    = 81.2328
RA_OF_ASC_NODE = 310.0402
ARG_OF_PERICENTER = 78.3273
MEAN_ANOMALY   = 282.0291

EPHEMERIS_TYPE = 0
CLASSIFICATION_TYPE = U
NORAD_CAT_ID   = 12465
ELEMENT_SET_NO = 999
REV_AT_EPOCH   = 43582
BSTAR          = .26391E-3
MEAN_MOTION_DOT = .11183E-3
MEAN_MOTION_DDOT = 0

CCSDS_OMM_VERS = 2.0
CREATION_DATE  = 
ORIGINATOR     = 

OBJECT_NAME    = SL-3 R/B
OBJECT_ID      = 1981-103B
CENTER_NAME    = EARTH
REF_FRAME      = TEME
TIME_SYSTEM    = UTC
MEAN_ELEMENT_THEORY = SGP/SGP4

EPOCH          = 2026-02-20T19:15:12.487104
MEAN_MOTION    = 15.21153860
ECCENTRICITY   = .0013072
INCLINATION    = 81.1560
RA_OF_ASC_NODE = 233.2415
ARG_OF_PERICENTER = 346.4854
MEAN_ANOMALY   = 13.6025

EPHEMERIS_TYPE = 0
CLASSIFICATION_TYPE = U
NORAD_CAT_ID   = 12904
ELEMENT_SET_NO = 999
REV_AT_EPOCH   = 97066
BSTAR          = .20741E-3
MEAN_MOTION_DOT = .4653E-4
MEAN_MOTION_DDOT = 0

CCSDS_OMM_VERS = 2.0
CREATION_DATE  = 
ORIGINATOR     = 

OBJECT_NAME    = SL-3 R/B
OBJECT_ID      = 1982-013B
CENTER_NAME    = EARTH
REF_FRAME      = TEME
TIME_SYSTEM    = UTC
MEAN_ELEMENT_THEORY = SGP/SGP4

EPOCH          = 2026-02-20T18:02:31.742592
MEAN_MOTION    = 15.21817468
ECCENTRICITY   = .0021879
INCLINATION    = 81.1764
RA_OF_ASC_NODE = 180.6153
ARG_OF_PERICENTER = 235.6058
MEAN_ANOMALY   = 124.3105

EPHEMERIS_TYPE = 0
CLASSIFICATION_TYPE = U
NORAD_CAT_ID   = 13068
ELEMENT_SET_NO = 999
REV_AT_EPOCH   = 40177
BSTAR          = .21339E-3
MEAN_MOTION_DOT = .4901E-4
MEAN_MOTION_DDOT = 0

CCSDS_OMM_VERS = 2.0
CREATION_DATE  = 
ORIGINATOR     = 

OBJECT_NAME    = SL-3 R/B
OBJECT_ID      = 1982-039B
CENTER_NAME    = EARTH
REF_FRAME      = TEME
TIME_SYSTEM    = UTC
MEAN_ELEMENT_THEORY = SGP/SGP4

EPOCH          = 2026-02-20T18:13:34.851360
MEAN_MOTION    = 15.09975596
ECCENTRICITY   = .003001
INCLINATION    = 81.1590
RA_OF_ASC_NODE = 235.4787
ARG_OF_PERICENTER = 19.7716
MEAN_ANOMALY   = 340.4664

EPHEMERIS_TYPE = 0
CLASSIFICATION_TYPE = U
NORAD_CAT_ID   = 13154
ELEMENT_SET_NO = 999
REV_AT_EPOCH   = 37908
BSTAR          = .11952E-3
MEAN_MOTION_DOT = .1984E-4
MEAN_MOTION_DDOT = 0

CCSDS_OMM_VERS = 2.0
CREATION_DATE  = 
ORIGINATOR     = 

OBJECT_NAME    = SL-3 R/B
OBJECT_ID      = 1982-079B
CENTER_NAME    = EARTH
REF_FRAME      = TEME
TIME_SYSTEM    = UTC
MEAN_ELEMENT_THEORY = SGP/SGP4

EPOCH          = 2026-02-20T19:12:10.615968
MEAN_MOTION    = 15.24518291
ECCENTRICITY   = .0024359
INCLINATION    = 81.1455
RA_OF_ASC_NODE = 213.0146
ARG_OF_PERICENTER = 222.0661
MEAN_ANOMALY   = 137.8703

EPHEMERIS_TYPE = 0
CLASSIFICATION_TYPE = U
NORAD_CAT_ID   = 13403
ELEMENT_SET_NO = 999
REV_AT_EPOCH   = 37512
BSTAR          = .24162E-3
MEAN_MOTION_DOT = .6017E-4
MEAN_MOTION_DDOT = 0

CCSDS_OMM_VERS = 2.0
CREATION_DATE  = 
ORIGINATOR     = 

OBJECT_NAME    = SL-14 R/B
OBJECT_ID      = 1982-092B
CENTER_NAME    = EARTH
REF_FRAME      = TEME
TIME_SYSTEM    = UTC
MEAN_ELEMENT_THEORY = SGP/SGP4

EPOCH          = 2026-02-20T18:13:26.040288
MEAN_MOTION    = 14.86646972
ECCENTRICITY   = .0020272
INCLINATION    = 82.5712
RA_OF_ASC_NODE = 157.2308
ARG_OF_PERICENTER = 1.8187
MEAN_ANOMALY   = 111.6778

EPHEMERIS_TYPE = 0
CLASSIFICATION_TYPE = U
NORAD_CAT_ID   = 13553
ELEMENT_SET_NO = 999
REV_AT_EPOCH   = 32641
BSTAR          = .49114E-4
MEAN_MOTION_DOT = .462E-5
MEAN_MOTION_DDOT = 0

CCSDS_OMM_VERS = 2.0
CREATION_DATE  = 
ORIGINATOR     = 

OBJECT_NAME    = SL-3 R/B
OBJECT_ID      = 1983-010B
CENTER_NAME    = EARTH
REF_FRAME      = TEME
TIME_SYSTEM    = UTC
MEAN_ELEMENT_THEORY = SGP/SGP4

EPOCH          = 2026-02-20T09:57:42.091200
MEAN_MOTION    = 15.45682961
ECCENTRICITY   = .0018627
INCLINATION    = 81.1043
RA_OF_ASC_NODE = 23.4135
ARG_OF_PERICENTER = 105.3176
MEAN_ANOMALY   = 255.0129

EPHEMERIS_TYPE = 0
CLASSIFICATION_TYPE = U
NORAD_CAT_ID   = 13819
ELEMENT_SET_NO = 999
REV_AT_EPOCH   = 35527
BSTAR          = .26358E-3
MEAN_MOTION_DOT = .12836E-3
MEAN_MOTION_DDOT = 0

CCSDS_OMM_VERS = 2.0
CREATION_DATE  = 
ORIGINATOR     = 

OBJECT_NAME    = SL-3 R/B
OBJECT_ID      = 1983-075B
CENTER_NAME    = EARTH
REF_FRAME      = TEME
TIME_SYSTEM    = UTC
MEAN_ELEMENT_THEORY = SGP/SGP4

EPOCH          = 2026-02-20T18:33:13.830336
MEAN_MOTION    = 15.37960332
ECCENTRICITY   = .0019827
INCLINATION    = 97.6137
RA_OF_ASC_NODE = 55.7171
ARG_OF_PERICENTER = 292.6528
MEAN_ANOMALY   = 67.2619

EPHEMERIS_TYPE = 0
CLASSIFICATION_TYPE = U
NORAD_CAT_ID   = 14208
ELEMENT_SET_NO = 999
REV_AT_EPOCH   = 32755
BSTAR          = .27834E-3
MEAN_MOTION_DOT = .10373E-3
MEAN_MOTION_DDOT = 0

CCSDS_OMM_VERS = 2.0
CREATION_DATE  = 
ORIGINATOR     = 

OBJECT_NAME    = COSMOS 1536
OBJECT_ID      = 1984-013A
CENTER_NAME    = EARTH
REF_FRAME      = TEME
TIME_SYSTEM    = UTC
MEAN_ELEMENT_THEORY = SGP/SGP4

EPOCH          = 2026-02-20T15:29:09.611232
MEAN_MOTION    = 15.23575175
ECCENTRICITY   = .0013728
INCLINATION    = 82.5457
RA_OF_ASC_NODE = 124.7890
ARG_OF_PERICENTER = 348.5018
MEAN_ANOMALY   = 11.5903

EPHEMERIS_TYPE = 0
CLASSIFICATION_TYPE = U
NORAD_CAT_ID   = 14699
ELEMENT_SET_NO = 999
REV_AT_EPOCH   = 27002
BSTAR          = .18914E-3
MEAN_MOTION_DOT = .4566E-4
MEAN_MOTION_DDOT = 0

CCSDS_OMM_VERS = 2.0
CREATION_DATE  = 
ORIGINATOR     = 

OBJECT_NAME    = SL-14 R/B
OBJECT_ID      = 1984-027B
CENTER_NAME    = EARTH
REF_FRAME      = TEME
TIME_SYSTEM    = UTC
MEAN_ELEMENT_THEORY = SGP/SGP4

EPOCH          = 2026-02-20T15:45:36.999936
MEAN_MOTION    = 14.85957742
ECCENTRICITY   = .0018808
INCLINATION    = 82.5384
RA_OF_ASC_NODE = 260.9920
ARG_OF_PERICENTER = 33.9954
MEAN_ANOMALY   = 326.2463

EPHEMERIS_TYPE = 0
CLASSIFICATION_TYPE = U
NORAD_CAT_ID   = 14820
ELEMENT_SET_NO = 999
REV_AT_EPOCH   = 24510
BSTAR          = .40074E-4
MEAN_MOTION_DOT = .375E-5
MEAN_MOTION_DDOT = 0

